COSMOS 2433 (720)       
1 32275U 07052A   25097.91341865 -.00000052  00000+0  00000+0 0  9999
2 32275  65.8086 330.5458 0001158 276.1737  83.8665  2.13104082135781
COSMOS 2432 (719)       
1 32276U 07052B   25097.75461296 -.00000053  00000+0  00000+0 0  9994
2 32276  65.8240 330.6705 0010214 335.7565 207.7794  2.13103255135808
COSMOS 2434 (721)       
1 32393U 07065A   25097.54584207 -.00000043  00000+0  00000+0 0  9992
2 32393  64.3157 206.6149 0002585  71.0254 258.6439  2.13101372134482
COSMOS 2436 (723)       
1 32395U 07065C   25097.20134677 -.00000041  00000+0  00000+0 0  9997
2 32395  64.3242 206.6942 0016804   2.6058 196.9323  2.13100264134431
COSMOS 2456 (730)       
1 36111U 09070A   25098.48323176  .00000046  00000+0  00000+0 0  9994
2 36111  64.7621  85.8295 0006486 308.2376 176.0278  2.13103708119164
COSMOS 2457 (733)       
1 36112U 09070B   25098.38119431  .00000046  00000+0  00000+0 0  9991
2 36112  64.7472  85.6854 0002176 199.1230 338.2829  2.13101148119166
COSMOS 2460 (732)       
1 36402U 10007C   25097.39895462 -.00000051  00000+0  00000+0 0  9997
2 36402  65.6594 329.1763 0002210  38.9442 100.7527  2.13106213117446
COSMOS 2476 (744)       
1 37867U 11064A   25098.09265782  .00000052  00000+0  00000+0 0  9991
2 37867  65.0288  87.5867 0024479 242.2370 212.8298  2.13101553104490
COSMOS 2477 (745)       
1 37868U 11064B   25098.27833740  .00000051  00000+0  00000+0 0  9996
2 37868  65.0358  87.6558 0021695 243.8617 173.2627  2.13103032104495
COSMOS 2475 (743)       
1 37869U 11064C   25098.49337024  .00000051  00000+0  00000+0 0  9995
2 37869  65.0428  87.6659 0027303 256.1634 282.9729  2.13101782104507
COSMOS 2485 (747)       
1 39155U 13019A   25098.37785969  .00000053  00000+0  00000+0 0  9991
2 39155  65.1836  88.2221 0024740 238.2018 121.5663  2.13104518 93010
COSMOS 2492 (754)       
1 39620U 14012A   25096.92681679 -.00000052  00000+0  00000+0 0  9994
2 39620  65.5395 328.7263 0012886 329.6058  30.3708  2.13103226 85941
COSMOS 2500 (755)       
1 40001U 14032A   25098.04079321 -.00000049  00000+0  00000+0 0  9997
2 40001  65.4752 328.4706 0004797 193.5450 166.4953  2.13106098 84185
COSMOS 2501 (702K)      
1 40315U 14075A   25098.29725935 -.00000043  00000+0  00000+0 0  9992
2 40315  63.6156 205.4312 0020433 207.2877 152.6021  2.13101409 80583
COSMOS 2514 (751)       
1 41330U 16008A   25097.81154657 -.00000048  00000+0  00000+0 0  9997
2 41330  65.2675 327.9130 0008609 206.4700 153.5386  2.13102634 71349
COSMOS 2522 (752)       
1 42939U 17055A   25097.18131155 -.00000041  00000+0  00000+0 0  9997
2 42939  64.0773 206.7295 0007924 233.5197 126.4029  2.13101782 58685
COSMOS 2527 (756)       
1 43508U 18053A   25098.07972794  .00000054  00000+0  00000+0 0  9993
2 43508  65.3425  88.4458 0009473 247.0698 112.8402  2.13102262 53008
COSMOS 2529 (757)       
1 43687U 18086A   25098.17795436 -.00000044  00000+0  00000+0 0  9994
2 43687  64.2931 207.2877 0009060 256.9950 102.8979  2.13102032 50015
COSMOS 2534 (758)       
1 44299U 19030A   25097.45969606 -.00000042  00000+0  00000+0 0  9994
2 44299  64.3665 207.2930 0010824 281.0785  22.0796  2.13102300 45635
COSMOS 2544 (759)       
1 44850U 19088A   25098.02405376  .00000054  00000+0  00000+0 0  9995
2 44850  65.3297  88.2789 0015459 262.1128  97.7214  2.13102044 41443
COSMOS 2545 (760)       
1 45358U 20018A   25097.28222465 -.00000051  00000+0  00000+0 0  9995
2 45358  64.6058 327.7016 0007383 249.9394 110.0320  2.13102535 39374
COSMOS 2547 (705K)      
1 46805U 20075A   25098.40646159 -.00000043  00000+0  00000+0 0  9992
2 46805  64.5960 206.9903 0007364 236.0475 123.8771  2.13100374 34648
COSMOS 2557 (706K)      
1 52984U 22075A   25098.10435527 -.00000053  00000+0  00000+0 0  9992
2 52984  64.5401 329.7760 0011228 285.3762  74.5525  2.13101992 21448
COSMOS 2559 (707K)      
1 54031U 22130A   25091.00919060 -.00000051  00000+0  00000+0 0  9998
2 54031  64.5157 330.1326 0005192 225.6156 134.3984  2.13101195 19268
COSMOS 2564 (761)       
1 54377U 22161A   25098.23726947 -.00000043  00000+0  00000+0 0  9998
2 54377  64.7380 207.1539 0009714 215.3843 144.5456  2.13102002 18368
COSMOS 2569 (703K)      
1 57517U 23114A   25098.25227778  .00000051  00000+0  00000+0 0  9994
2 57517  65.0608  87.3143 0012921 294.5811  65.2923  2.13103947 12991
COSMOS 2584 (704K)      
1 63130U 25042A   25097.20027129  .00000053  00000+0  00000+0 0  9998
2 63130  64.8415  87.6505 0007777 237.1318 122.8031  2.13103530   754
